INTELSAT 32E (IS-32E)   
1 41945U 17007B   25028.81673148 -.00000258  00000+0  00000+0 0  9997
2 41945   0.0150  72.6108 0000424  39.8477 266.6864  1.00269266 29161
ECHOSTAR 23             
1 42070U 17014A   25028.58922866 -.00000046  00000+0  00000+0 0  9998
2 42070   0.0168  59.9634 0002199 243.6446 286.6939  1.00272054 28864
WGS F9 (USA 275)        
1 42075U 17016A   25029.32308748 -.00000087  00000+0  00000+0 0  9990
2 42075   0.0242  86.2940 0000527 313.6014 193.2276  1.00269298 28871
SES-10                  
1 42432U 17017A   25029.45511241 -.00000263  00000+0  00000+0 0  9992
2 42432   0.0122  49.5479 0002502 265.4862 270.8393  1.00268898 28679
CHINASAT 16 (SJ-13)     
1 42662U 17018A   25028.81542321 -.00000341  00000+0  00000+0 0  9997
2 42662   0.0163  85.0193 0006636 174.6289 272.7318  1.00267745 28682
KOREASAT 7              
1 42691U 17023A   25028.94927758 -.00000351  00000+0  00000+0 0  9991
2 42691   0.0325 314.7270 0001622  14.4888 256.8389  1.00271826 28381
SGDC                    
1 42692U 17023B   25028.85132418 -.00000239  00000+0  00000+0 0  9998
2 42692   0.0474 265.5254 0002959  60.9638  33.4716  1.00270887 28340
GSAT-9                  
1 42695U 17024A   25028.78625885 -.00000276  00000+0  00000+0 0  9990
2 42695   0.0613 264.2360 0002370  46.8474 197.4733  1.00275720 28251
INMARSAT 5-F4           
1 42698U 17025A   25028.90786913  .00000086  00000+0  00000+0 0  9996
2 42698   0.0170  64.3129 0000190 354.4470  92.9491  1.00272591 28204
SES-15                  
1 42709U 17026A   25028.58540591  .00000071  00000+0  00000+0 0  9998
2 42709   0.0173  19.5613 0000416 348.7092 201.3945  1.00274836  2382
QZS-2 (MICHIBIKI-2)     
1 42738U 17028A   25028.92654844 -.00000064  00000+0  00000+0 0  9990
2 42738  40.2116 250.4951 0750403 269.9529  83.4709  1.00272338 28071
VIASAT-2                
1 42740U 17029A   25029.34216161 -.00000256  00000+0  00000+0 0  9990
2 42740   0.0182  89.7359 0000376 299.9290 152.4426  1.00266547 28125
EUTELSAT 172B           
1 42741U 17029B   25029.44146653  .00000003  00000+0  00000+0 0  9999
2 42741   0.0191 116.9937 0000159  20.0136 322.8333  1.00270800 28668
GSAT-19                 
1 42747U 17031A   25029.42132751  .00000134  00000+0  00000+0 0  9995
2 42747   0.0195  95.2964 0002395 263.7740 329.3688  1.00271699 28075
ECHOSTAR 21             
1 42749U 17032A   25028.61303392  .00000080  00000+0  00000+0 0  9999
2 42749   2.1726 327.4329 0002073 346.6880  44.9481  1.00273792 28048
BULGARIASAT-1           
1 42801U 17038A   25029.10604876  .00000021  00000+0  00000+0 0  9995
2 42801   0.0384  83.8278 0002697 227.0659 217.7529  1.00271059 27853
HELLAS-SAT 3            
1 42814U 17040A   25028.56993914  .00000163  00000+0  00000+0 0  9992
2 42814   0.0625  51.1254 0003765 291.0749  30.0137  1.00270638 27746
GSAT-17                 
1 42815U 17040B   25028.17549427 -.00000246  00000+0  00000+0 0  9999
2 42815   0.0065 294.1300 0005520 337.6528  12.5663  1.00271657 27728
INTELSAT 35E (IS-35E)   
1 42818U 17041A   25029.46154156 -.00000229  00000+0  00000+0 0  9998
2 42818   0.0287  95.2799 0002351 227.3978 297.9461  1.00267993 27758
COSMOS 2520             
1 42907U 17046A   25028.82479897  .00000148  00000+0  00000+0 0  9992
2 42907   0.0290 106.5481 0001476 205.2650 158.3948  1.00269209 27330
TDRS 13                 
1 42915U 17047A   25029.59555361 -.00000086  00000+0  00000+0 0  9990
2 42915   3.4967 349.8537 0010710 110.6849 231.5171  1.00270993 27335
QZS-3 (MICHIBIKI-3)     
1 42917U 17048A   25029.53382700 -.00000339  00000+0  00000+0 0  9993
2 42917   0.0691 141.3607 0001562 184.6266 122.2279  1.00268150 27311
AMAZONAS 5              
1 42934U 17053A   25026.56854705 -.00000265  00000+0  00000+0 0  9995
2 42934   0.0422 317.0106 0005019 356.7207 316.0169  1.00270060 26960
ASIASAT 9               
1 42942U 17057A   25027.34920535 -.00000345  00000+0  00000+0 0  9999
2 42942   0.0150  66.7844 0002400 240.6462  67.2343  1.00272275 26788
INTELSAT 37E (IS-37E)   
1 42950U 17059A   25029.50808177 -.00000132  00000+0  00000+0 0  9991
2 42950   0.0281  91.8330 0002514 208.6324 353.4425  1.00269734 26998
BSAT-4A                 
1 42951U 17059B   25027.04632512 -.00000335  00000+0  00000+0 0  9992
2 42951   0.0333  37.7145 0003593 335.5909 239.7577  1.00269677 26728
SES-11 (ECHOSTAR 105)   
1 42967U 17063A   25028.11230017 -.00000076  00000+0  00000+0 0  9999
2 42967   0.0219  64.3590 0002187 227.9791 130.7443  1.00271252 26655
KOREASAT 5A             
1 42984U 17067A   25028.77633205 -.00000348  00000+0  00000+0 0  9992
2 42984   0.0540 269.9929 0001083  13.1758 237.7176  1.00270756 26471
ALCOMSAT 1              
1 43039U 17078A   25029.46345294 -.00000177  00000+0  00000+0 0  9991
2 43039   0.0379 163.7860 0003141 120.9200 346.2779  1.00269303 26228
SBIRS GEO-3 (USA 282)   
1 43162U 18009A   25029.52757769  .00000140  00000+0  00000+0 0  9993
2 43162   2.1563 345.8035 0002255 319.5082 214.2206  1.00271900 25784
AL YAH 3                
1 43174U 18012A   25029.11716007 -.00000146  00000+0  00000+0 0  9992
2 43174   0.2443  90.1842 0004053 235.5542 184.9191  1.00271391 25785
SES-14                  
1 43175U 18012B   25029.33660447 -.00000269  00000+0  00000+0 0  9999
2 43175   0.0101  29.2687 0000590 254.4821 278.7430  1.00270089 25980
GOES 17                 
1 43226U 18022A   25029.43035517 -.00000082  00000+0  00000+0 0  9995
2 43226   0.0208  90.6205 0003089 189.3685 259.1808  1.00269891 25388
HISPASAT 30W-6          
1 43228U 18023A   25029.32549296 -.00000207  00000+0  00000+0 0  9999
2 43228   0.0402  47.0110 0004621 293.4920 235.4700  1.00271401 25444
SUPERBIRD-B3            
1 43271U 18033A   25028.61785590 -.00000082  00000+0  00000+0 0  9999
2 43271   0.0184  92.2338 0000975 218.7621 201.5527  1.00269339 25009
HYLAS 4                 
1 43272U 18033B   25029.07202222 -.00000224  00000+0  00000+0 0  9995
2 43272   0.0574 263.7692 0000900  65.6519 151.5771  1.00269677 25015
USA 283                 
1 43339U 18036A   25026.42279851 -.00000300  00000+0  00000+0 0  9995
2 43339   0.0180  81.4846 0000215 313.8584  16.9277  1.00268829 20206
COSMOS 2526             
1 43432U 18037A   25029.53382700 -.00000336  00000+0  00000+0 0  9992
2 43432   0.0313 108.0600 0000320 328.2422  12.9015  1.00266754 24913
APSTAR-6C               
1 43450U 18041A   25028.27956396 -.00000306  00000+0  00000+0 0  9992
2 43450   0.0576 284.2884 0003471  30.8664  47.2520  1.00269873 24781
BANGABANDHUSAT-1        
1 43463U 18044A   25028.77754837 -.00000352  00000+0  00000+0 0  9991
2 43463   0.0174 108.9143 0002594 218.4341 199.9224  1.00269907 24650
SES-12                  
1 43488U 18049A   25028.17549427 -.00000257  00000+0  00000+0 0  9998
2 43488   0.0147  52.6558 0002159 235.2935 357.8920  1.00270491 24350
FENGYUN 2H              
1 43491U 18050A   25028.76964225 -.00000118  00000+0  00000+0 0  9992
2 43491   1.7271  85.1200 0000952 198.7447 200.6864  1.00269012 24387
BEIDOU-2 IGSO-7         
1 43539U 18057A   25019.31863137 -.00000081  00000+0  00000+0 0  9992
2 43539  55.1601 167.5020 0079956 232.2573 302.6513  1.00246108 23989
TELSTAR 19V             
1 43562U 18059A   25025.74056163 -.00000261  00000+0  00000+0 0  9997
2 43562   0.0286 163.0516 0000375  16.7991 149.0244  1.00269590 24055
TELKOM 4 (MERAH PUTIH)  
1 43587U 18064A   25026.98917256 -.00000329  00000+0  00000+0 0  9991
2 43587   0.0170  55.5576 0001251 291.2996 243.7465  1.00271681 23807
TELSTAR 18V             
1 43611U 18069A   25026.67688163 -.00000277  00000+0  00000+0 0  9994
2 43611   0.0176  66.2672 0001568 250.9764 190.6156  1.00270449 23531
AZERSPACE 2 (IS-38)     
1 43632U 18074A   25028.90578399  .00000147  00000+0  00000+0 0  9995
2 43632   0.0168  48.0546 0001405 272.2017 179.3181  1.00270080 23398
HORIZONS-3E             
1 43633U 18074B   25027.35850156 -.00000016  00000+0  00000+0 0  9994
2 43633   0.0147 274.3301 0001029  18.1950 132.3703  1.00272152 23250
AEHF-4 (USA 288)        
1 43651U 18079A   25029.45485177 -.00000262  00000+0  00000+0 0  9992
2 43651   1.5992 335.6410 0051161   6.2418 243.1047  1.00263640 23248
BEIDOU-3 G1             
1 43683U 18085A   25029.52098080 -.00000270  00000+0  00000+0 0  9994
2 43683   2.7549 101.9363 0001422  13.0624 341.5879  1.00274702 23006
GSAT-29                 
1 43698U 18089A   25029.19354698  .00000095  00000+0  00000+0 0  9991
2 43698   0.0064 301.2514 0002351 351.0409 321.1113  1.00271177 22766
ES'HAIL 2               
1 43700U 18090A   25029.11622333  .00000154  00000+0  00000+0 0  9999
2 43700   0.0159  70.1120 0000900 247.9497 238.1589  1.00270017 22865
GEO-KOMPSAT-2A          
1 43823U 18100A   25028.04493781 -.00000331  00000+0  00000+0 0  9999
2 43823   0.0138 106.1277 0000999 303.5127 222.3315  1.00270555 22564
GSAT-11                 
1 43824U 18100B   25029.19728285 -.00000067  00000+0  00000+0 0  9993
2 43824   0.0858 268.5439 0002345 135.8242 229.2978  1.00271200 22578
GSAT-7A                 
1 43864U 18105A   25029.40941326  .00000035  00000+0  00000+0 0  9993
2 43864   0.0150  85.5754 0002107 216.1555  37.3692  1.00272026 22398
COSMOS 2533             
1 43867U 18107A   25029.19650090 -.00000029  00000+0  00000+0 0  9993
2 43867   0.0259 117.1744 0001198 186.7355 325.4850  1.00273590 22362
TJS-3                   
1 43874U 18110A   25028.78336937 -.00000204  00000+0  00000+0 0  9995
2 43874   1.2381  86.6425 0001792  48.7691  63.3432  1.00272924 22369
ZHONGXING-2D            
1 43920U 19001A   25029.53382700 -.00000328  00000+0  00000+0 0  9997
2 43920   0.0524 247.1484 0001227 329.4213 234.6163  1.00268729 22304
HELLAS-SAT 4 & SGS-1    
1 44034U 19007A   25027.89424212  .00000165  00000+0  00000+0 0  9990
2 44034   0.0668 122.2632 0002863  44.5686 321.4807  1.00269299 22295
GSAT-31                 
1 44035U 19007B   25029.19198312  .00000135  00000+0  00000+0 0  9992
2 44035   0.0933 268.1364 0005446  17.0889 320.4501  1.00271233 21901
